STARLINK-1679
1 16557C 20070AB  21326.15452458 -.00013357  00000-0 -89476-3 0  3266
2 16557  53.0545   3.0512 0001577  60.2464 323.0126 15.06420465    15
